{
"type": "FeatureCollection",
"name": "all_top10",
"crs": { "type": "name", "properties": { "name": "urn:ogc:def:crs:OGC:1.3:CRS84" } },
"features": [
{ "type": "Feature", "properties": { "target_group": "어린이", "cluster_rank": 1, "top10_label": "어린이 TOP1", "cluster_id": "C17", "risk_pct_mean": 54.86, "infra_need_mean": 1.0, "vulnerability_mean": 0.5486, "vulnerability_max": 0.5486, "grid_n": 1, "cctv_need_rate": 1.0, "light_need_rate": 1.0, "wifi_need_rate": 1.0, "cctv_priority": 0.3458698700986112, "light_priority": 0.44987772172896168, "wifi_priority": 0.20425240817242715, "cctv_needed": true, "light_needed": true, "wifi_needed": true, "need_facility_n": 3, "primary_facility": "보안등", "facility_priority_order": "보안등 > CCTV > Wi-Fi", "recommendation_type": "복수시설 보완 필요", "police_distance_mean_km": null, "police_access_reference": null, "longitude": 128.66552926539995, "latitude": 35.238051720318524 }, "geometry": { "type": "Polygon", "coordinates": [ [ [ 128.666072230434366, 35.237595667040878 ], [ 128.666085135343252, 35.238497188428212 ], [ 128.664986294288525, 35.238507771243874 ], [ 128.6649734015337, 35.237606249505319 ], [ 128.666072230434366, 35.237595667040878 ] ] ] } },
{ "type": "Feature", "properties": { "target_group": "어린이", "cluster_rank": 2, "top10_label": "어린이 TOP2", "cluster_id": "C3", "risk_pct_mean": 54.55, "infra_need_mean": 1.0, "vulnerability_mean": 0.5455, "vulnerability_max": 0.5455, "grid_n": 1, "cctv_need_rate": 1.0, "light_need_rate": 1.0, "wifi_need_rate": 1.0, "cctv_priority": 0.3458698700986112, "light_priority": 0.44987772172896168, "wifi_priority": 0.20425240817242715, "cctv_needed": true, "light_needed": true, "wifi_needed": true, "need_facility_n": 3, "primary_facility": "보안등", "facility_priority_order": "보안등 > CCTV > Wi-Fi", "recommendation_type": "복수시설 보완 필요", "police_distance_mean_km": null, "police_access_reference": null, "longitude": 128.56477931641118, "latitude": 35.181273824946359 }, "geometry": { "type": "Polygon", "coordinates": [ [ [ 128.565322487742918, 35.180818216025621 ], [ 128.565334253050594, 35.181719776849121 ], [ 128.564236139018561, 35.181729431504664 ], [ 128.564224385832603, 35.180827870360474 ], [ 128.565322487742918, 35.180818216025621 ] ] ] } },
{ "type": "Feature", "properties": { "target_group": "어린이", "cluster_rank": 3, "top10_label": "어린이 TOP3", "cluster_id": "C15", "risk_pct_mean": 50.0, "infra_need_mean": 1.0, "vulnerability_mean": 0.5, "vulnerability_max": 0.5, "grid_n": 1, "cctv_need_rate": 1.0, "light_need_rate": 1.0, "wifi_need_rate": 1.0, "cctv_priority": 0.3458698700986112, "light_priority": 0.44987772172896168, "wifi_priority": 0.20425240817242715, "cctv_needed": true, "light_needed": true, "wifi_needed": true, "need_facility_n": 3, "primary_facility": "보안등", "facility_priority_order": "보안등 > CCTV > Wi-Fi", "recommendation_type": "복수시설 보완 필요", "police_distance_mean_km": null, "police_access_reference": null, "longitude": 128.65876690483552, "latitude": 35.148853021595833 }, "geometry": { "type": "Polygon", "coordinates": [ [ [ 128.659309329543447, 35.148397002805957 ], [ 128.659322117341702, 35.149298539662375 ], [ 128.658224474077144, 35.149309038040428 ], [ 128.658211698379773, 35.148407500835177 ], [ 128.659309329543447, 35.148397002805957 ] ] ] } },
{ "type": "Feature", "properties": { "target_group": "어린이", "cluster_rank": 4, "top10_label": "어린이 TOP4", "cluster_id": "C35", "risk_pct_mean": 46.53, "infra_need_mean": 1.0, "vulnerability_mean": 0.4653, "vulnerability_max": 0.4653, "grid_n": 1, "cctv_need_rate": 1.0, "light_need_rate": 1.0, "wifi_need_rate": 1.0, "cctv_priority": 0.3458698700986112, "light_priority": 0.44987772172896168, "wifi_priority": 0.20425240817242715, "cctv_needed": true, "light_needed": true, "wifi_needed": true, "need_facility_n": 3, "primary_facility": "보안등", "facility_priority_order": "보안등 > CCTV > Wi-Fi", "recommendation_type": "복수시설 보완 필요", "police_distance_mean_km": null, "police_access_reference": null, "longitude": 128.75470661301313, "latitude": 35.105519801415539 }, "geometry": { "type": "Polygon", "coordinates": [ [ [ 128.755248209740671, 35.105063366888317 ], [ 128.755262033433098, 35.10596487829303 ], [ 128.754165010248869, 35.105976233615927 ], [ 128.754151198629785, 35.105074721833709 ], [ 128.755248209740671, 35.105063366888317 ] ] ] } },
{ "type": "Feature", "properties": { "target_group": "어린이", "cluster_rank": 5, "top10_label": "어린이 TOP5", "cluster_id": "C33", "risk_pct_mean": 40.97, "infra_need_mean": 1.0, "vulnerability_mean": 0.4097, "vulnerability_max": 0.4097, "grid_n": 1, "cctv_need_rate": 1.0, "light_need_rate": 1.0, "wifi_need_rate": 1.0, "cctv_priority": 0.3458698700986112, "light_priority": 0.44987772172896168, "wifi_priority": 0.20425240817242715, "cctv_needed": true, "light_needed": true, "wifi_needed": true, "need_facility_n": 3, "primary_facility": "보안등", "facility_priority_order": "보안등 > CCTV > Wi-Fi", "recommendation_type": "복수시설 보완 필요", "police_distance_mean_km": null, "police_access_reference": null, "longitude": 128.7057855741767, "latitude": 35.210608023541603 }, "geometry": { "type": "Polygon", "coordinates": [ [ [ 128.706328130304257, 35.210151795751855 ], [ 128.706341467115834, 35.211053308078782 ], [ 128.705243011980656, 35.211064248987668 ], [ 128.705229687306002, 35.210162736297491 ], [ 128.706328130304257, 35.210151795751855 ] ] ] } },
{ "type": "Feature", "properties": { "target_group": "어린이", "cluster_rank": 6, "top10_label": "어린이 TOP6", "cluster_id": "C30", "risk_pct_mean": 38.96, "infra_need_mean": 1.0, "vulnerability_mean": 0.3896, "vulnerability_max": 0.3896, "grid_n": 1, "cctv_need_rate": 1.0, "light_need_rate": 1.0, "wifi_need_rate": 1.0, "cctv_priority": 0.3458698700986112, "light_priority": 0.44987772172896168, "wifi_priority": 0.20425240817242715, "cctv_needed": true, "light_needed": true, "wifi_needed": true, "need_facility_n": 3, "primary_facility": "보안등", "facility_priority_order": "보안등 > CCTV > Wi-Fi", "recommendation_type": "복수시설 보완 필요", "police_distance_mean_km": null, "police_access_reference": null, "longitude": 128.70391563954348, "latitude": 35.158330979166351 }, "geometry": { "type": "Polygon", "coordinates": [ [ [ 128.704457867653758, 35.157874762669799 ], [ 128.704471158055412, 35.158776283413175 ], [ 128.703373405380347, 35.158787193323633 ], [ 128.703360127084437, 35.157885672217787 ], [ 128.704457867653758, 35.157874762669799 ] ] ] } },
{ "type": "Feature", "properties": { "target_group": "어린이", "cluster_rank": 7, "top10_label": "어린이 TOP7", "cluster_id": "C22", "risk_pct_mean": 57.67, "infra_need_mean": 0.65413012990138886, "vulnerability_mean": 0.37723684591413092, "vulnerability_max": 0.37723684591413092, "grid_n": 1, "cctv_need_rate": 0.0, "light_need_rate": 1.0, "wifi_need_rate": 1.0, "cctv_priority": 0.0, "light_priority": 0.44987772172896168, "wifi_priority": 0.20425240817242715, "cctv_needed": false, "light_needed": true, "wifi_needed": true, "need_facility_n": 2, "primary_facility": "보안등", "facility_priority_order": "보안등 > Wi-Fi", "recommendation_type": "복수시설 보완 필요", "police_distance_mean_km": null, "police_access_reference": null, "longitude": 128.6786891555391, "latitude": 35.236120975663177 }, "geometry": { "type": "Polygon", "coordinates": [ [ [ 128.679232032620661, 35.235664864885216 ], [ 128.679245082216795, 35.23656638230942 ], [ 128.678146272381184, 35.236577084091017 ], [ 128.67813323493769, 35.235675566311627 ], [ 128.679232032620661, 35.235664864885216 ] ] ] } },
{ "type": "Feature", "properties": { "target_group": "어린이", "cluster_rank": 8, "top10_label": "어린이 TOP8", "cluster_id": "C16", "risk_pct_mean": 37.5, "infra_need_mean": 1.0, "vulnerability_mean": 0.375, "vulnerability_max": 0.375, "grid_n": 1, "cctv_need_rate": 1.0, "light_need_rate": 1.0, "wifi_need_rate": 1.0, "cctv_priority": 0.3458698700986112, "light_priority": 0.44987772172896168, "wifi_priority": 0.20425240817242715, "cctv_needed": true, "light_needed": true, "wifi_needed": true, "need_facility_n": 3, "primary_facility": "보안등", "facility_priority_order": "보안등 > CCTV > Wi-Fi", "recommendation_type": "복수시설 보완 필요", "police_distance_mean_km": null, "police_access_reference": null, "longitude": 128.65881803636779, "latitude": 35.152459168611657 }, "geometry": { "type": "Polygon", "coordinates": [ [ [ 128.659360484143747, 35.152003149400855 ], [ 128.659373274213635, 35.152904685703419 ], [ 128.658275582540284, 35.152915185476857 ], [ 128.65826280457344, 35.152013648825445 ], [ 128.659360484143747, 35.152003149400855 ] ] ] } },
{ "type": "Feature", "properties": { "target_group": "어린이", "cluster_rank": 9, "top10_label": "어린이 TOP9", "cluster_id": "C21", "risk_pct_mean": 36.19, "infra_need_mean": 1.0, "vulnerability_mean": 0.3619, "vulnerability_max": 0.461, "grid_n": 2, "cctv_need_rate": 1.0, "light_need_rate": 1.0, "wifi_need_rate": 1.0, "cctv_priority": 0.3458698700986112, "light_priority": 0.44987772172896168, "wifi_priority": 0.20425240817242715, "cctv_needed": true, "light_needed": true, "wifi_needed": true, "need_facility_n": 3, "primary_facility": "보안등", "facility_priority_order": "보안등 > CCTV > Wi-Fi", "recommendation_type": "복수시설 보완 필요", "police_distance_mean_km": null, "police_access_reference": null, "longitude": 128.67914070167069, "latitude": 35.229354239030627 }, "geometry": { "type": "MultiPolygon", "coordinates": [ [ [ [ 128.679127656709369, 35.228452720496406 ], [ 128.678028956228076, 35.228463419081564 ], [ 128.67804198904102, 35.229364937970921 ], [ 128.67914070167069, 35.229354239030627 ], [ 128.679127656709369, 35.228452720496406 ] ] ], [ [ [ 128.679153747211245, 35.230255757426107 ], [ 128.680252471410455, 35.230245048160725 ], [ 128.68023941372104, 35.22934353012073 ], [ 128.67914070167069, 35.229354239030627 ], [ 128.679153747211245, 35.230255757426107 ] ] ] ] } },
{ "type": "Feature", "properties": { "target_group": "어린이", "cluster_rank": 10, "top10_label": "어린이 TOP10", "cluster_id": "C8", "risk_pct_mean": 36.02, "infra_need_mean": 1.0, "vulnerability_mean": 0.3602, "vulnerability_max": 0.3602, "grid_n": 1, "cctv_need_rate": 1.0, "light_need_rate": 1.0, "wifi_need_rate": 1.0, "cctv_priority": 0.3458698700986112, "light_priority": 0.44987772172896168, "wifi_priority": 0.20425240817242715, "cctv_needed": true, "light_needed": true, "wifi_needed": true, "need_facility_n": 3, "primary_facility": "보안등", "facility_priority_order": "보안등 > CCTV > Wi-Fi", "recommendation_type": "복수시설 보완 필요", "police_distance_mean_km": null, "police_access_reference": null, "longitude": 128.58946620167919, "latitude": 35.302777441157161 }, "geometry": { "type": "Polygon", "coordinates": [ [ [ 128.590010024697534, 35.302321718307788 ], [ 128.590022116828919, 35.303223253669373 ], [ 128.588922372563815, 35.303233161636854 ], [ 128.588910292626537, 35.302331625946692 ], [ 128.590010024697534, 35.302321718307788 ] ] ] } },
{ "type": "Feature", "properties": { "target_group": "노인", "cluster_rank": 1, "top10_label": "노인 TOP1", "cluster_id": "E117", "risk_pct_mean": 65.97, "infra_need_mean": 0.82196297414052621, "vulnerability_mean": 0.54224897404050509, "vulnerability_max": 0.54224897404050509, "grid_n": 1, "cctv_need_rate": 1.0, "light_need_rate": 1.0, "wifi_need_rate": 0.0, "cctv_priority": 0.32916337390638484, "light_priority": 0.49279960023414138, "wifi_priority": 0.0, "cctv_needed": true, "light_needed": true, "wifi_needed": false, "need_facility_n": 2, "primary_facility": "보안등", "facility_priority_order": "보안등 > CCTV", "recommendation_type": "복수시설 보완 필요", "police_distance_mean_km": 0.85315682782657631, "police_access_reference": "0.5~1km", "longitude": 128.70684399697336, "latitude": 35.207892540772491 }, "geometry": { "type": "Polygon", "coordinates": [ [ [ 128.70738652942137, 35.207436308520414 ], [ 128.707399876591666, 35.208337820900503 ], [ 128.706301458457745, 35.208348770681269 ], [ 128.706288123422695, 35.207447257937623 ], [ 128.70738652942137, 35.207436308520414 ] ] ] } },
{ "type": "Feature", "properties": { "target_group": "노인", "cluster_rank": 2, "top10_label": "노인 TOP2", "cluster_id": "E75", "risk_pct_mean": 64.265, "infra_need_mean": 0.75360019988292937, "vulnerability_mean": 0.51703538190031728, "vulnerability_max": 0.7755, "grid_n": 2, "cctv_need_rate": 1.0, "light_need_rate": 0.5, "wifi_need_rate": 1.0, "cctv_priority": 0.32916337390638484, "light_priority": 0.24639980011707069, "wifi_priority": 0.17803702585947381, "cctv_needed": true, "light_needed": true, "wifi_needed": true, "need_facility_n": 3, "primary_facility": "CCTV", "facility_priority_order": "CCTV > 보안등 > Wi-Fi", "recommendation_type": "복수시설 보완 필요", "police_distance_mean_km": 0.075422496584155438, "police_access_reference": "0.5km 이내", "longitude": 128.66041976003839, "latitude": 35.149288031343843 }, "geometry": { "type": "MultiPolygon", "coordinates": [ [ [ [ 128.660406960139284, 35.148386494836586 ], [ 128.659309329543447, 35.148397002805957 ], [ 128.659322117341702, 35.149298539662375 ], [ 128.660419760038394, 35.149288031343843 ], [ 128.660406960139284, 35.148386494836586 ] ] ], [ [ [ 128.660432560505882, 35.150189567712644 ], [ 128.661530214735478, 35.150179049104139 ], [ 128.66151740216668, 35.149277513084854 ], [ 128.660419760038394, 35.149288031343843 ], [ 128.660432560505882, 35.150189567712644 ] ] ] ] } },
{ "type": "Feature", "properties": { "target_group": "노인", "cluster_rank": 3, "top10_label": "노인 TOP3", "cluster_id": "E28", "risk_pct_mean": 46.53, "infra_need_mean": 1.0, "vulnerability_mean": 0.4653, "vulnerability_max": 0.4653, "grid_n": 1, "cctv_need_rate": 1.0, "light_need_rate": 1.0, "wifi_need_rate": 1.0, "cctv_priority": 0.32916337390638484, "light_priority": 0.49279960023414138, "wifi_priority": 0.17803702585947381, "cctv_needed": true, "light_needed": true, "wifi_needed": true, "need_facility_n": 3, "primary_facility": "보안등", "facility_priority_order": "보안등 > CCTV > Wi-Fi", "recommendation_type": "복수시설 보완 필요", "police_distance_mean_km": 0.40220775762275396, "police_access_reference": "0.5km 이내", "longitude": 128.57090888779234, "latitude": 35.229909433235079 }, "geometry": { "type": "Polygon", "coordinates": [ [ [ 128.571452340991556, 35.229453795250691 ], [ 128.571464195299427, 35.230355347015077 ], [ 128.570365428517789, 35.230365068853558 ], [ 128.570353586360625, 35.229463516766486 ], [ 128.571452340991556, 35.229453795250691 ] ] ] } },
{ "type": "Feature", "properties": { "target_group": "노인", "cluster_rank": 4, "top10_label": "노인 TOP4", "cluster_id": "E80", "risk_pct_mean": 44.39, "infra_need_mean": 1.0, "vulnerability_mean": 0.4439, "vulnerability_max": 0.5128, "grid_n": 2, "cctv_need_rate": 1.0, "light_need_rate": 1.0, "wifi_need_rate": 1.0, "cctv_priority": 0.32916337390638484, "light_priority": 0.49279960023414138, "wifi_priority": 0.17803702585947381, "cctv_needed": true, "light_needed": true, "wifi_needed": true, "need_facility_n": 3, "primary_facility": "보안등", "facility_priority_order": "보안등 > CCTV > Wi-Fi", "recommendation_type": "복수시설 보완 필요", "police_distance_mean_km": 1.6867543575376933, "police_access_reference": "1~2km", "longitude": 128.66737133770582, "latitude": 35.25155863507311 }, "geometry": { "type": "Polygon", "coordinates": [ [ [ 128.666265864248658, 35.251118473289594 ], [ 128.666278777755906, 35.252019992596672 ], [ 128.667377800612229, 35.252009394533474 ], [ 128.668476822894576, 35.251998786492194 ], [ 128.668463885063204, 35.251097267888795 ], [ 128.667364874942905, 35.251107875578072 ], [ 128.666265864248658, 35.251118473289594 ] ] ] } },
{ "type": "Feature", "properties": { "target_group": "노인", "cluster_rank": 5, "top10_label": "노인 TOP5", "cluster_id": "E68", "risk_pct_mean": 40.0, "infra_need_mean": 1.0, "vulnerability_mean": 0.4, "vulnerability_max": 0.4, "grid_n": 1, "cctv_need_rate": 1.0, "light_need_rate": 1.0, "wifi_need_rate": 1.0, "cctv_priority": 0.32916337390638484, "light_priority": 0.49279960023414138, "wifi_priority": 0.17803702585947381, "cctv_needed": true, "light_needed": true, "wifi_needed": true, "need_facility_n": 3, "primary_facility": "보안등", "facility_priority_order": "보안등 > CCTV > Wi-Fi", "recommendation_type": "복수시설 보완 필요", "police_distance_mean_km": 0.13678707748185534, "police_access_reference": "0.5km 이내", "longitude": 128.64463863043761, "latitude": 35.237349462094166 }, "geometry": { "type": "Polygon", "coordinates": [ [ [ 128.645181710534246, 35.236893500355983 ], [ 128.645194383949644, 35.237795028498724 ], [ 128.644095544264019, 35.237805421476963 ], [ 128.644082883002596, 35.236903892989268 ], [ 128.645181710534246, 35.236893500355983 ] ] ] } },
{ "type": "Feature", "properties": { "target_group": "노인", "cluster_rank": 6, "top10_label": "노인 TOP6", "cluster_id": "E81", "risk_pct_mean": 38.31, "infra_need_mean": 1.0, "vulnerability_mean": 0.3831, "vulnerability_max": 0.3831, "grid_n": 1, "cctv_need_rate": 1.0, "light_need_rate": 1.0, "wifi_need_rate": 1.0, "cctv_priority": 0.32916337390638484, "light_priority": 0.49279960023414138, "wifi_priority": 0.17803702585947381, "cctv_needed": true, "light_needed": true, "wifi_needed": true, "need_facility_n": 3, "primary_facility": "보안등", "facility_priority_order": "보안등 > CCTV > Wi-Fi", "recommendation_type": "복수시설 보완 필요", "police_distance_mean_km": 1.0838033106815219, "police_access_reference": "1~2km", "longitude": 128.6700281987041, "latitude": 35.245221466779526 }, "geometry": { "type": "Polygon", "coordinates": [ [ [ 128.670571184606075, 35.244765393404293 ], [ 128.670584142733105, 35.24566691227372 ], [ 128.669485206723067, 35.245677537802521 ], [ 128.669472260754247, 35.244776018580481 ], [ 128.670571184606075, 35.244765393404293 ] ] ] } },
{ "type": "Feature", "properties": { "target_group": "노인", "cluster_rank": 7, "top10_label": "노인 TOP7", "cluster_id": "E111", "risk_pct_mean": 38.1, "infra_need_mean": 1.0, "vulnerability_mean": 0.381, "vulnerability_max": 0.381, "grid_n": 1, "cctv_need_rate": 1.0, "light_need_rate": 1.0, "wifi_need_rate": 1.0, "cctv_priority": 0.32916337390638484, "light_priority": 0.49279960023414138, "wifi_priority": 0.17803702585947381, "cctv_needed": true, "light_needed": true, "wifi_needed": true, "need_facility_n": 3, "primary_facility": "보안등", "facility_priority_order": "보안등 > CCTV > Wi-Fi", "recommendation_type": "복수시설 보완 필요", "police_distance_mean_km": 0.8031053383899952, "police_access_reference": "0.5~1km", "longitude": 128.70152462462698, "latitude": 35.219666839396602 }, "geometry": { "type": "Polygon", "coordinates": [ [ [ 128.702067263957701, 35.219210629690437 ], [ 128.702080558123356, 35.220112142079529 ], [ 128.700981979225077, 35.220123046757614 ], [ 128.700968697201802, 35.219221534006529 ], [ 128.702067263957701, 35.219210629690437 ] ] ] } },
{ "type": "Feature", "properties": { "target_group": "노인", "cluster_rank": 8, "top10_label": "노인 TOP8", "cluster_id": "E121", "risk_pct_mean": 54.17, "infra_need_mean": 0.67083662609361516, "vulnerability_mean": 0.36339220035491138, "vulnerability_max": 0.36339220035491138, "grid_n": 1, "cctv_need_rate": 0.0, "light_need_rate": 1.0, "wifi_need_rate": 1.0, "cctv_priority": 0.0, "light_priority": 0.49279960023414138, "wifi_priority": 0.17803702585947381, "cctv_needed": false, "light_needed": true, "wifi_needed": true, "need_facility_n": 2, "primary_facility": "보안등", "facility_priority_order": "보안등 > Wi-Fi", "recommendation_type": "복수시설 보완 필요", "police_distance_mean_km": 1.6321837991118264, "police_access_reference": "1~2km", "longitude": 128.71110377378207, "latitude": 35.19883354468832 }, "geometry": { "type": "Polygon", "coordinates": [ [ [ 128.711646223083932, 35.198377294372186 ], [ 128.711659612848024, 35.199278806684092 ], [ 128.71056131841533, 35.199289792662604 ], [ 128.710547940780998, 35.198388279985906 ], [ 128.711646223083932, 35.198377294372186 ] ] ] } },
{ "type": "Feature", "properties": { "target_group": "노인", "cluster_rank": 9, "top10_label": "노인 TOP9", "cluster_id": "E15", "risk_pct_mean": 36.215, "infra_need_mean": 1.0, "vulnerability_mean": 0.36215, "vulnerability_max": 0.391, "grid_n": 2, "cctv_need_rate": 1.0, "light_need_rate": 1.0, "wifi_need_rate": 1.0, "cctv_priority": 0.32916337390638484, "light_priority": 0.49279960023414138, "wifi_priority": 0.17803702585947381, "cctv_needed": true, "light_needed": true, "wifi_needed": true, "need_facility_n": 3, "primary_facility": "보안등", "facility_priority_order": "보안등 > CCTV > Wi-Fi", "recommendation_type": "복수시설 보완 필요", "police_distance_mean_km": 3.5035705125853065, "police_access_reference": "2km 초과", "longitude": 128.55452960040472, "latitude": 35.152960982439119 }, "geometry": { "type": "Polygon", "coordinates": [ [ [ 128.555066826218223, 35.152054635633142 ], [ 128.553969107248378, 35.152064190226774 ], [ 128.553980734802849, 35.15296575865181 ], [ 128.553992362873686, 35.153867326939071 ], [ 128.555090106053541, 35.153857771710477 ], [ 128.555078465877443, 35.152956203740693 ], [ 128.555066826218223, 35.152054635633142 ] ] ] } },
{ "type": "Feature", "properties": { "target_group": "노인", "cluster_rank": 10, "top10_label": "노인 TOP10", "cluster_id": "E37", "risk_pct_mean": 41.82, "infra_need_mean": 0.8658326747812769, "vulnerability_mean": 0.35839920677766812, "vulnerability_max": 0.4863, "grid_n": 5, "cctv_need_rate": 1.0, "light_need_rate": 0.8, "wifi_need_rate": 0.8, "cctv_priority": 0.32916337390638484, "light_priority": 0.39423968018731315, "wifi_priority": 0.14242962068757906, "cctv_needed": true, "light_needed": true, "wifi_needed": true, "need_facility_n": 3, "primary_facility": "보안등", "facility_priority_order": "보안등 > CCTV > Wi-Fi", "recommendation_type": "복수시설 보완 필요", "police_distance_mean_km": 0.5691929743801174, "police_access_reference": "0.5~1km", "longitude": 128.57953892691998, "latitude": 35.234341046102543 }, "geometry": { "type": "MultiPolygon", "coordinates": [ [ [ [ 128.578104499059094, 35.233903004493541 ], [ 128.579203310752092, 35.233893211556818 ], [ 128.579191369268955, 35.232991662612932 ], [ 128.578092569728682, 35.233001455224617 ], [ 128.578104499059094, 35.233903004493541 ] ] ], [ [ [ 128.580302121914826, 35.233883408647657 ], [ 128.581400932546728, 35.233873595766099 ], [ 128.581388966758254, 35.232972047473332 ], [ 128.580290168279021, 35.232981860029163 ], [ 128.580302121914826, 35.233883408647657 ] ] ], [ [ [ 128.579203310752092, 35.233893211556818 ], [ 128.579215252765493, 35.234794760362611 ], [ 128.57811642891923, 35.234804553624393 ], [ 128.578128359309147, 35.235706102617172 ], [ 128.579227195309187, 35.235696309030317 ], [ 128.580326030778906, 35.23568650547039 ], [ 128.580314076081436, 35.234784957128078 ], [ 128.580302121914826, 35.233883408647657 ], [ 128.579203310752092, 35.233893211556818 ] ] ] ] } }
]
}
