{"type":"FeatureCollection","name":"창원시 5개 구 행정경계","source":"© OpenStreetMap contributors","features":[{"type":"Feature","properties":{"name":"의창구","osm_id":7224483,"display_name":"의창구, 창원시, 경상남도, 대한민국","source":"OpenStreetMap Nominatim"},"geometry":{"type":"Polygon","coordinates":[[[128.5594463,35.3527784],[128.5601162,35.3517095],[128.5639678,35.3500806],[128.5627236,35.3469866],[128.5652878,35.3450683],[128.566092,35.3427416],[128.564582,35.3411778],[128.5662741,35.3385891],[128.5679984,35.3381027],[128.5695363,35.3370729],[128.570265,35.3358233],[128.5698549,35.334226],[128.5668143,35.3297862],[128.5651411,35.3283934],[128.5633478,35.3258878],[128.5664258,35.3251896],[128.5683983,35.3227509],[128.5710991,35.3214263],[128.5723459,35.319781],[128.5719943,35.3167342],[128.5721934,35.3155104],[128.5757339,35.3126389],[128.5765916,35.3127475],[128.5814094,35.3098723],[128.5826791,35.3086144],[128.5811734,35.3065103],[128.5797572,35.3064227],[128.5777187,35.3054946],[128.5722899,35.3007489],[128.5735774,35.2958103],[128.5769143,35.2911498],[128.5810752,35.2874983],[128.5822891,35.2840985],[128.5816562,35.2813474],[128.5832763,35.2785579],[128.5858083,35.2773404],[128.5876322,35.2771565],[128.5899121,35.2764032],[128.5930609,35.2678016],[128.5913443,35.2620551],[128.6054206,35.25],[128.603189,35.2456541],[128.6085105,35.2396256],[128.6153769,35.2335966],[128.6131453,35.2253235],[128.6116004,35.2233603],[128.6126303,35.2187325],[128.6182952,35.2176106],[128.6241317,35.219013],[128.6272225,35.2158532],[128.633409,35.2205115],[128.6417075,35.2296926],[128.6501961,35.2400869],[128.6533214,35.2422249],[128.6561059,35.2434],[128.6647385,35.2456326],[128.6693497,35.2458135],[128.6815289,35.2418423],[128.6917469,35.2355289],[128.6938947,35.2326019],[128.694418,35.2324658],[128.6998352,35.2340128],[128.7056717,35.2344335],[128.7101349,35.2363964],[128.7135681,35.2362562],[128.7159714,35.2349943],[128.7236962,35.2371676],[128.7240386,35.239976],[128.7211204,35.2444625],[128.7180949,35.243411],[128.7174296,35.2505607],[128.7138247,35.2568951],[128.7141359,35.2573332],[128.7130523,35.2590152],[128.7126446,35.2616083],[128.7114859,35.2632728],[128.7116333,35.2695339],[128.710162,35.2718105],[128.7100467,35.2724434],[128.7085801,35.2741269],[128.7073452,35.2766157],[128.7071698,35.2775953],[128.7062998,35.278339],[128.7061478,35.2800336],[128.7064366,35.2806862],[128.7053833,35.2813911],[128.7054898,35.2817157],[128.7049926,35.2822055],[128.705318,35.2829883],[128.7050278,35.2844888],[128.705602,35.2852486],[128.7057217,35.2863439],[128.7062664,35.2872587],[128.7067292,35.28739],[128.7058487,35.2883617],[128.7052848,35.2884268],[128.7041985,35.2892462],[128.7042432,35.28972],[128.7035805,35.2905365],[128.7037459,35.2911629],[128.70345,35.2918741],[128.7045229,35.2937481],[128.6955428,35.3036734],[128.6966693,35.3104501],[128.6986327,35.3098198],[128.7051344,35.309347],[128.7067437,35.3095746],[128.7092757,35.3088916],[128.7161636,35.3100649],[128.7130522,35.3120785],[128.7113786,35.3147225],[128.7135243,35.3181017],[128.7130951,35.3219885],[128.7139964,35.323249],[128.7176656,35.3255249],[128.7196183,35.3250348],[128.7212491,35.3225137],[128.7250685,35.3193623],[128.7335229,35.3158956],[128.7401533,35.3174364],[128.7409257,35.3193623],[128.7424707,35.3203778],[128.7427926,35.3255949],[128.7416124,35.3304792],[128.7423634,35.3316346],[128.7463116,35.3326149],[128.7492299,35.3321248],[128.7503671,35.3327375],[128.7498414,35.3357046],[128.7502813,35.3372012],[128.7502384,35.3402644],[128.7509326,35.3399013],[128.7531245,35.3372713],[128.7526222,35.3359034],[128.7517638,35.3348625],[128.7529045,35.3343761],[128.7541305,35.3349387],[128.7616324,35.3405094],[128.7616263,35.3443694],[128.7341605,35.3523503],[128.7147689,35.3652908],[128.6897002,35.3779678],[128.6814604,35.3762882],[128.6598311,35.372649],[128.6505185,35.3740662],[128.6271021,35.3731575],[128.6229637,35.3749205],[128.6172549,35.3784773],[128.6161321,35.379467],[128.6143417,35.3823617],[128.6078857,35.3877613],[128.6021858,35.3934363],[128.6002171,35.394254],[128.5977387,35.3940004],[128.5922241,35.3899946],[128.5875009,35.3845637],[128.5842987,35.3817082],[128.5796641,35.3795783],[128.5770033,35.3791645],[128.5759771,35.3760402],[128.5762047,35.3727678],[128.5777903,35.3679735],[128.5769248,35.3660258],[128.5735191,35.3628263],[128.5715402,35.3617962],[128.5715497,35.3587549],[128.5707986,35.3580725],[128.5677534,35.3573508],[128.5625264,35.3570167],[128.5614202,35.3560165],[128.5594463,35.3527784]]]}},{"type":"Feature","properties":{"name":"성산구","osm_id":7224482,"display_name":"성산구, 창원시, 경상남도, 대한민국","source":"OpenStreetMap Nominatim"},"geometry":{"type":"Polygon","coordinates":[[[128.582654,35.1912759],[128.5876322,35.1728962],[128.5993051,35.150021],[128.6099267,35.1530036],[128.6137032,35.1546878],[128.6179948,35.1548281],[128.6200547,35.161284],[128.6264062,35.1640907],[128.6279511,35.1687216],[128.6361909,35.1757376],[128.6488938,35.1762989],[128.6561036,35.1802276],[128.664,35.1802276],[128.6883759,35.1708265],[128.7120652,35.1677393],[128.7312913,35.1601613],[128.7388444,35.1584772],[128.7409043,35.1640907],[128.7404108,35.1686865],[128.7477278,35.1925736],[128.7522769,35.1930646],[128.7507319,35.2004292],[128.7442088,35.2058294],[128.7378573,35.204006],[128.7305617,35.2054788],[128.7249827,35.2122111],[128.7221503,35.2190831],[128.7221503,35.2226591],[128.7198329,35.224973],[128.7242102,35.2291096],[128.7236962,35.2371676],[128.7159714,35.2349943],[128.7135681,35.2362562],[128.7101349,35.2363964],[128.7056717,35.2344335],[128.6998352,35.2340128],[128.694418,35.2324658],[128.6938947,35.2326019],[128.6917469,35.2355289],[128.6815289,35.2418423],[128.6693497,35.2458135],[128.6659488,35.2458399],[128.6561059,35.2434],[128.6533214,35.2422249],[128.6501961,35.2400869],[128.6417075,35.2296926],[128.633409,35.2205115],[128.6272225,35.2158532],[128.6186814,35.212141],[128.6095834,35.2130526],[128.5894131,35.2025332],[128.582654,35.1912759]]]}},{"type":"Feature","properties":{"name":"마산합포구","osm_id":7224481,"display_name":"마산합포구, 창원시, 경상남도, 대한민국","source":"OpenStreetMap Nominatim"},"geometry":{"type":"Polygon","coordinates":[[[128.3479474,35.1268356],[128.3509265,35.1237866],[128.3517118,35.1234495],[128.3527865,35.1194845],[128.3537137,35.1184877],[128.3529049,35.1166671],[128.3530274,35.1145361],[128.3500743,35.1109569],[128.355691,35.1079932],[128.3565703,35.1078054],[128.3579387,35.10884],[128.3645229,35.1083961],[128.3678382,35.1087002],[128.3705079,35.109403],[128.3743607,35.1091889],[128.3762091,35.1084624],[128.3765478,35.1076336],[128.3797893,35.1046169],[128.3809749,35.1038865],[128.3822255,35.1037017],[128.3891584,35.1002474],[128.3900862,35.0989951],[128.3907642,35.0963504],[128.3902569,35.0959543],[128.3898399,35.0949327],[128.3898899,35.0938041],[128.3908144,35.0918675],[128.3920749,35.0904111],[128.3925134,35.0885421],[128.3943919,35.086836],[128.3956787,35.0864373],[128.3987647,35.0845699],[128.3994441,35.0834672],[128.4004408,35.0841642],[128.4006441,35.0860423],[128.3993144,35.0881753],[128.3991739,35.0890919],[128.3996036,35.0906142],[128.4090132,35.0914544],[128.4103089,35.0923322],[128.4118648,35.0928374],[128.4150055,35.0915623],[128.4179087,35.0911185],[128.4184558,35.0905437],[128.4188026,35.0892107],[128.420094,35.0885011],[128.4234877,35.0882753],[128.4266674,35.0869191],[128.4279103,35.0860512],[128.4283854,35.0852579],[128.4287416,35.0831458],[128.4283299,35.0823059],[128.4255999,35.08078],[128.4253174,35.0801317],[128.4258022,35.0791088],[128.425673,35.0759775],[128.4263984,35.0744761],[128.4264496,35.073056],[128.428262,35.0712446],[128.4270567,35.0682439],[128.4262429,35.0675231],[128.4260718,35.06685],[128.4263716,35.064724],[128.4251018,35.0635087],[128.4234917,35.0604318],[128.4232122,35.0594855],[128.4235507,35.0592181],[128.4229755,35.058457],[128.422764,35.0561139],[128.4261984,35.051836],[128.4313029,35.0521902],[128.4344235,35.0554731],[128.4434983,35.0685285],[128.4530255,35.0724624],[128.4619519,35.070355],[128.469505,35.0775902],[128.4770581,35.0730243],[128.5544774,35.0333962],[128.6587808,35.0491513],[128.6502886,35.082902],[128.6037683,35.1358436],[128.5993051,35.150021],[128.5876322,35.1728962],[128.582654,35.1912759],[128.5894131,35.2025332],[128.5858512,35.2052684],[128.586688,35.2090905],[128.5884744,35.2136224],[128.5899925,35.2150336],[128.5897667,35.2188008],[128.5849709,35.2224144],[128.5845799,35.2223961],[128.5820563,35.2199696],[128.580706,35.2196977],[128.5797616,35.2202978],[128.5791007,35.2202207],[128.5770302,35.2181164],[128.5772212,35.2168503],[128.5766705,35.2148142],[128.5750151,35.2155596],[128.572246,35.2157941],[128.5712975,35.216515],[128.5684222,35.2158094],[128.5654712,35.2172366],[128.5630199,35.2163255],[128.562734,35.2170076],[128.5608081,35.2169173],[128.5611969,35.215859],[128.5602082,35.2155441],[128.5594764,35.2159879],[128.5552579,35.2151496],[128.5546138,35.2136952],[128.5518833,35.2119756],[128.5490942,35.212404],[128.548429,35.2134033],[128.545897,35.2144201],[128.5435581,35.2149109],[128.5404253,35.2133156],[128.5376564,35.2109098],[128.5355973,35.2099846],[128.5361552,35.2065483],[128.5385156,35.2049879],[128.5388803,35.1975887],[128.5411383,35.1910508],[128.5401728,35.1897431],[128.5350394,35.1877336],[128.526113,35.1795962],[128.5096335,35.1790349],[128.4876609,35.1832441],[128.4789597,35.1877249],[128.4762459,35.188737],[128.4680432,35.1884965],[128.4652304,35.188847],[128.4639287,35.1884614],[128.4622872,35.1867121],[128.4581995,35.1857958],[128.4573251,35.1837615],[128.451376,35.1815824],[128.4463135,35.1802829],[128.4439231,35.1699914],[128.437463,35.1651873],[128.4343384,35.1640802],[128.4313537,35.1639503],[128.4299611,35.1642353],[128.4278369,35.1656369],[128.4269265,35.1667036],[128.4163846,35.1705938],[128.4140371,35.1750498],[128.4099063,35.1792695],[128.4063068,35.1793378],[128.4036487,35.1840684],[128.4037131,35.1860237],[128.4051932,35.1901831],[128.4078846,35.1923566],[128.4051186,35.199478],[128.4032571,35.202336],[128.4007912,35.2048525],[128.3987088,35.2056521],[128.3966911,35.2050931],[128.393687,35.2053209],[128.3892774,35.2068814],[128.386209,35.2040937],[128.382883,35.2020773],[128.3804583,35.2015689],[128.376494,35.1981804],[128.3768803,35.1956993],[128.3756572,35.1938844],[128.3743429,35.1933671],[128.3694935,35.1942965],[128.3675361,35.1941337],[128.3681846,35.1908288],[128.367191,35.1893543],[128.3668344,35.1881154],[128.3668344,35.183149],[128.3644929,35.1780556],[128.3651198,35.1718571],[128.3631398,35.1681052],[128.3613154,35.1623059],[128.3614201,35.1560738],[128.3621979,35.1522668],[128.3616301,35.1506022],[128.3607348,35.1502275],[128.3592934,35.1486173],[128.3586145,35.1468824],[128.3590279,35.1459375],[128.3599307,35.1457576],[128.3606742,35.1449263],[128.3621151,35.1419328],[128.3612573,35.1405535],[128.3594471,35.1403419],[128.3578691,35.1394904],[128.3569872,35.1385396],[128.3570219,35.1367552],[128.3580378,35.1358414],[128.3578795,35.1350825],[128.3556251,35.1344679],[128.3540171,35.1347359],[128.3532702,35.1344765],[128.3521963,35.1339169],[128.3487965,35.1310061],[128.3479474,35.1268356]]]}},{"type":"Feature","properties":{"name":"마산회원구","osm_id":7224480,"display_name":"마산회원구, 창원시, 경상남도, 대한민국","source":"OpenStreetMap Nominatim"},"geometry":{"type":"Polygon","coordinates":[[[128.4741996,35.2223419],[128.474941,35.2208331],[128.4784252,35.2162003],[128.4787345,35.2133858],[128.4792065,35.2123339],[128.484292,35.2116502],[128.4900707,35.2069947],[128.4903771,35.2044545],[128.4899849,35.2020707],[128.4882842,35.199062],[128.4870708,35.198393],[128.4855064,35.1966243],[128.4838285,35.1935713],[128.481524,35.1903553],[128.4789597,35.1877249],[128.4876609,35.1832441],[128.5096335,35.1790349],[128.526113,35.1795962],[128.5350394,35.1877336],[128.5401728,35.1897431],[128.5411383,35.1910508],[128.5388803,35.1975887],[128.5385156,35.2049879],[128.5361552,35.2065483],[128.5355973,35.2099846],[128.5376564,35.2109098],[128.5404253,35.2133156],[128.5435581,35.2149109],[128.545897,35.2144201],[128.548429,35.2134033],[128.5490942,35.212404],[128.5518833,35.2119756],[128.5546138,35.2136952],[128.5552579,35.2151496],[128.5594764,35.2159879],[128.5602082,35.2155441],[128.5611969,35.215859],[128.5608081,35.2169173],[128.562734,35.2170076],[128.5630199,35.2163255],[128.5654712,35.2172366],[128.5684222,35.2158094],[128.5712975,35.216515],[128.572246,35.2157941],[128.5750151,35.2155596],[128.5766705,35.2148142],[128.5772212,35.2168503],[128.5770302,35.2181164],[128.5791007,35.2202207],[128.5797616,35.2202978],[128.580706,35.2196977],[128.5820563,35.2199696],[128.5845799,35.2223961],[128.5849709,35.2224144],[128.5897667,35.2188008],[128.5899925,35.2150336],[128.5884744,35.2136224],[128.586688,35.2090905],[128.5858512,35.2052684],[128.5894131,35.2025332],[128.6095834,35.2130526],[128.6186814,35.212141],[128.6272225,35.2158532],[128.6241317,35.219013],[128.6182952,35.2176106],[128.6126303,35.2187325],[128.6116004,35.2233603],[128.6131453,35.2253235],[128.6153769,35.2335966],[128.6085105,35.2396256],[128.603189,35.2456541],[128.6054206,35.25],[128.5913443,35.2620551],[128.5930609,35.2678016],[128.5913202,35.2721201],[128.5912486,35.2715943],[128.5858888,35.2715014],[128.581887,35.2704856],[128.5781959,35.2691361],[128.5745752,35.2715288],[128.5710293,35.273123],[128.5628056,35.276193],[128.561836,35.2761714],[128.5572104,35.2773377],[128.5553947,35.276528],[128.5546517,35.2756587],[128.54485,35.2705786],[128.5383493,35.2727595],[128.5366567,35.2708263],[128.5355714,35.2690118],[128.5357207,35.267609],[128.5355061,35.2672323],[128.5348678,35.2667987],[128.5326791,35.2664833],[128.5323996,35.2670322],[128.5298145,35.268625],[128.5279584,35.2682221],[128.5251367,35.2689054],[128.5248631,35.2702368],[128.5216405,35.2699592],[128.5186779,35.2686645],[128.5155559,35.2685243],[128.5110712,35.2689798],[128.5087108,35.2705456],[128.5072023,35.2733131],[128.5061145,35.2737756],[128.5038605,35.2736785],[128.5034069,35.2733974],[128.5014581,35.2738456],[128.4973383,35.275615],[128.4908152,35.273758],[128.4905147,35.2700091],[128.4910083,35.2683623],[128.491137,35.2657694],[128.4886264,35.2635794],[128.4852147,35.2576573],[128.483836,35.2564001],[128.4811592,35.2550991],[128.4786811,35.2530667],[128.4757831,35.2478812],[128.4743872,35.2414128],[128.4757883,35.2376893],[128.47507,35.2338904],[128.4749941,35.2272969],[128.4753764,35.2248678],[128.4741996,35.2223419]]]}},{"type":"Feature","properties":{"name":"진해구","osm_id":7224479,"display_name":"진해구, 창원시, 경상남도, 대한민국","source":"OpenStreetMap Nominatim"},"geometry":{"type":"Polygon","coordinates":[[[128.5993051,35.150021],[128.6037683,35.1358436],[128.6502886,35.082902],[128.6587808,35.0491513],[128.6828801,35.0527911],[128.7611371,35.0359121],[128.7777582,35.0373282],[128.7842655,35.0568333],[128.7831743,35.0714616],[128.7870371,35.0737945],[128.8182617,35.0740579],[128.8183575,35.084488],[128.8217052,35.084469],[128.8217191,35.0860971],[128.8264137,35.0860704],[128.8263963,35.0880342],[128.8289906,35.0902114],[128.8240761,35.094132],[128.8233554,35.0953067],[128.8218279,35.0964376],[128.8203299,35.0964172],[128.8206464,35.0971787],[128.8219591,35.0979871],[128.8236369,35.1017243],[128.82445,35.1021168],[128.8306827,35.1025924],[128.8346953,35.1017848],[128.8366404,35.1032318],[128.8398988,35.1042952],[128.8413257,35.1054626],[128.8408966,35.1058663],[128.8423482,35.1072342],[128.843096,35.1084116],[128.8433535,35.109658],[128.8428953,35.1107274],[128.842831,35.1132989],[128.8415403,35.1146342],[128.840049,35.115152],[128.8381714,35.1151608],[128.8374022,35.1159581],[128.8364258,35.1185733],[128.8359184,35.1186624],[128.8357467,35.1190222],[128.8361684,35.1200301],[128.8375062,35.1208212],[128.8372702,35.1214355],[128.8376135,35.1215496],[128.8378313,35.122926],[128.8371339,35.1245319],[128.8362971,35.1251549],[128.8360718,35.1259973],[128.8353422,35.1268748],[128.8354173,35.1290861],[128.8359645,35.1298319],[128.8348058,35.1306216],[128.8329712,35.1299109],[128.8316837,35.1287702],[128.8285723,35.1285596],[128.8275853,35.1292528],[128.8276818,35.1301039],[128.8256541,35.1304637],[128.8254502,35.1312095],[128.8229182,35.1312095],[128.8214806,35.1320957],[128.8158587,35.1329468],[128.8128331,35.1347894],[128.8118461,35.1360002],[128.80734,35.1395272],[128.8073829,35.1408257],[128.8061598,35.1422996],[128.8040569,35.1421242],[128.8025978,35.1424049],[128.8021258,35.1435981],[128.8025549,35.1459843],[128.801997,35.1465458],[128.8019112,35.1471774],[128.8025549,35.1479845],[128.8023832,35.1488267],[128.7967184,35.1492126],[128.7950018,35.1498092],[128.7967613,35.1525461],[128.793886,35.1534233],[128.7939289,35.1545461],[128.7945297,35.1562303],[128.7939718,35.1573882],[128.7813735,35.1591789],[128.7641215,35.1693531],[128.7404108,35.1686865],[128.7409043,35.1640907],[128.7388444,35.1584772],[128.7312913,35.1601613],[128.7120652,35.1677393],[128.6883759,35.1708265],[128.664,35.1802276],[128.6561036,35.1802276],[128.6488938,35.1762989],[128.6361909,35.1757376],[128.6279511,35.1687216],[128.6264062,35.1640907],[128.6200547,35.161284],[128.6179948,35.1548281],[128.6137032,35.1546878],[128.6099267,35.1530036],[128.5993051,35.150021]]]}}]}