{"type":"FeatureCollection","licence":"Data © OpenStreetMap contributors, ODbL 1.0. http://osm.org/copyright","features":[{"type":"Feature","properties":{"place_id":270071406,"osm_type":"relation","osm_id":7224484,"place_rank":12,"category":"boundary","type":"administrative","importance":0.5747760873554018,"addresstype":"city","name":"창원시","display_name":"창원시, 경상남도, 대한민국"},"bbox":[128.3479474,35.0333962,128.8433535,35.3942540],"geometry":{"type":"Polygon","coordinates":[[[128.3479474,35.1268356],[128.3517118,35.1234495],[128.3537137,35.1184877],[128.3530274,35.1145361],[128.3500743,35.1109569],[128.3565703,35.1078054],[128.3579387,35.10884],[128.3645229,35.1083961],[128.3705079,35.109403],[128.3762091,35.1084624],[128.3797893,35.1046169],[128.3891584,35.1002474],[128.3907642,35.0963504],[128.3898899,35.0938041],[128.3925134,35.0885421],[128.3994441,35.0834672],[128.4004408,35.0841642],[128.4006441,35.0860423],[128.3993144,35.0881753],[128.3996036,35.0906142],[128.4090132,35.0914544],[128.4118648,35.0928374],[128.4179087,35.0911185],[128.4188026,35.0892107],[128.420094,35.0885011],[128.4234877,35.0882753],[128.4279103,35.0860512],[128.4287416,35.0831458],[128.4253174,35.0801317],[128.4264496,35.073056],[128.428262,35.0712446],[128.4262429,35.0675231],[128.4263716,35.064724],[128.4234917,35.0604318],[128.422764,35.0561139],[128.4261984,35.051836],[128.4313029,35.0521902],[128.4344235,35.0554731],[128.4434983,35.0685285],[128.4530255,35.0724624],[128.4619519,35.070355],[128.469505,35.0775902],[128.4770581,35.0730243],[128.5544774,35.0333962],[128.6828801,35.0527911],[128.7611371,35.0359121],[128.7777582,35.0373282],[128.7842655,35.0568333],[128.7831743,35.0714616],[128.7870371,35.0737945],[128.8182617,35.0740579],[128.8183575,35.084488],[128.8217052,35.084469],[128.8217191,35.0860971],[128.8264137,35.0860704],[128.8263963,35.0880342],[128.8289906,35.0902114],[128.8218279,35.0964376],[128.8203299,35.0964172],[128.8219591,35.0979871],[128.8236369,35.1017243],[128.8306827,35.1025924],[128.8346953,35.1017848],[128.8413257,35.1054626],[128.8408966,35.1058663],[128.8433535,35.109658],[128.842831,35.1132989],[128.8415403,35.1146342],[128.8381714,35.1151608],[128.8357467,35.1190222],[128.8375062,35.1208212],[128.8378313,35.122926],[128.8353422,35.1268748],[128.8359645,35.1298319],[128.8348058,35.1306216],[128.8316837,35.1287702],[128.8285723,35.1285596],[128.8275853,35.1292528],[128.8276818,35.1301039],[128.8256541,35.1304637],[128.8254502,35.1312095],[128.8158587,35.1329468],[128.8128331,35.1347894],[128.80734,35.1395272],[128.8073829,35.1408257],[128.8061598,35.1422996],[128.8025978,35.1424049],[128.8019112,35.1471774],[128.8023832,35.1488267],[128.7950018,35.1498092],[128.7967613,35.1525461],[128.793886,35.1534233],[128.7945297,35.1562303],[128.7939718,35.1573882],[128.7813735,35.1591789],[128.7641215,35.1693531],[128.7404108,35.1686865],[128.7477278,35.1925736],[128.7522769,35.1930646],[128.7507319,35.2004292],[128.7442088,35.2058294],[128.7378573,35.204006],[128.7305617,35.2054788],[128.7249827,35.2122111],[128.7221503,35.2190831],[128.7221503,35.2226591],[128.7198329,35.224973],[128.7242102,35.2291096],[128.7240386,35.239976],[128.7211204,35.2444625],[128.7180949,35.243411],[128.7174296,35.2505607],[128.7138247,35.2568951],[128.7126446,35.2616083],[128.7114859,35.2632728],[128.7116333,35.2695339],[128.7062998,35.278339],[128.7064366,35.2806862],[128.7049926,35.2822055],[128.7050278,35.2844888],[128.7067292,35.28739],[128.7035805,35.2905365],[128.70345,35.2918741],[128.7045229,35.2937481],[128.6955428,35.3036734],[128.6966693,35.3104501],[128.7092757,35.3088916],[128.7161636,35.3100649],[128.7130522,35.3120785],[128.7113786,35.3147225],[128.7135243,35.3181017],[128.7130951,35.3219885],[128.7176656,35.3255249],[128.7196183,35.3250348],[128.7212491,35.3225137],[128.7250685,35.3193623],[128.7335229,35.3158956],[128.7401533,35.3174364],[128.7409257,35.3193623],[128.7424707,35.3203778],[128.7427926,35.3255949],[128.7416124,35.3304792],[128.7423634,35.3316346],[128.7503671,35.3327375],[128.7502384,35.3402644],[128.7531245,35.3372713],[128.7517638,35.3348625],[128.7529045,35.3343761],[128.7541305,35.3349387],[128.7616324,35.3405094],[128.7616263,35.3443694],[128.7341605,35.3523503],[128.7147689,35.3652908],[128.6897002,35.3779678],[128.6598311,35.372649],[128.6505185,35.3740662],[128.6271021,35.3731575],[128.6172549,35.3784773],[128.6143417,35.3823617],[128.6021858,35.3934363],[128.6002171,35.394254],[128.5977387,35.3940004],[128.5922241,35.3899946],[128.5842987,35.3817082],[128.5770033,35.3791645],[128.5759771,35.3760402],[128.5777903,35.3679735],[128.5769248,35.3660258],[128.5715402,35.3617962],[128.5715497,35.3587549],[128.5707986,35.3580725],[128.5625264,35.3570167],[128.5594463,35.3527784],[128.5601162,35.3517095],[128.5639678,35.3500806],[128.5627236,35.3469866],[128.5652878,35.3450683],[128.566092,35.3427416],[128.564582,35.3411778],[128.5662741,35.3385891],[128.5695363,35.3370729],[128.570265,35.3358233],[128.5668143,35.3297862],[128.5633478,35.3258878],[128.5664258,35.3251896],[128.5683983,35.3227509],[128.5710991,35.3214263],[128.5723459,35.319781],[128.5721934,35.3155104],[128.5826791,35.3086144],[128.5811734,35.3065103],[128.5777187,35.3054946],[128.5722899,35.3007489],[128.5735774,35.2958103],[128.5769143,35.2911498],[128.5810752,35.2874983],[128.5822891,35.2840985],[128.5816562,35.2813474],[128.5832763,35.2785579],[128.5899121,35.2764032],[128.5912486,35.2715943],[128.5858888,35.2715014],[128.5781959,35.2691361],[128.5710293,35.273123],[128.5628056,35.276193],[128.5569611,35.277336],[128.54485,35.2705786],[128.5383493,35.2727595],[128.5355714,35.2690118],[128.5355061,35.2672323],[128.5326791,35.2664833],[128.5298145,35.268625],[128.5279584,35.2682221],[128.5251367,35.2689054],[128.5248631,35.2702368],[128.5216405,35.2699592],[128.5186779,35.2686645],[128.5110712,35.2689798],[128.5087108,35.2705456],[128.5072023,35.2733131],[128.5014581,35.2738456],[128.4973383,35.275615],[128.4908152,35.273758],[128.491137,35.2657694],[128.4886264,35.2635794],[128.4852147,35.2576573],[128.4786811,35.2530667],[128.4757831,35.2478812],[128.4743872,35.2414128],[128.4757883,35.2376893],[128.47507,35.2338904],[128.4753764,35.2248678],[128.4741996,35.2223419],[128.4784252,35.2162003],[128.4792065,35.2123339],[128.484292,35.2116502],[128.4900707,35.2069947],[128.4899849,35.2020707],[128.4807522,35.189343],[128.4789597,35.1877249],[128.4762459,35.188737],[128.4647977,35.1887508],[128.4622872,35.1867121],[128.4581995,35.1857958],[128.4573251,35.1837615],[128.4463135,35.1802829],[128.4439231,35.1699914],[128.437463,35.1651873],[128.4313537,35.1639503],[128.4269265,35.1667036],[128.4163846,35.1705938],[128.4140371,35.1750498],[128.4099063,35.1792695],[128.4063068,35.1793378],[128.4036487,35.1840684],[128.4051932,35.1901831],[128.4078846,35.1923566],[128.4051186,35.199478],[128.4007912,35.2048525],[128.3987088,35.2056521],[128.393687,35.2053209],[128.3892774,35.2068814],[128.386209,35.2040937],[128.382883,35.2020773],[128.3804583,35.2015689],[128.376494,35.1981804],[128.3768803,35.1956993],[128.3756572,35.1938844],[128.3743429,35.1933671],[128.3675361,35.1941337],[128.3681846,35.1908288],[128.3668344,35.1881154],[128.3668344,35.183149],[128.3644929,35.1780556],[128.3651198,35.1718571],[128.3613154,35.1623059],[128.3621979,35.1522668],[128.3586145,35.1468824],[128.3606742,35.1449263],[128.3621151,35.1419328],[128.3612573,35.1405535],[128.3594471,35.1403419],[128.3569872,35.1385396],[128.3578795,35.1350825],[128.3532702,35.1344765],[128.3487965,35.1310061],[128.3479474,35.1268356]]]}}]}