{
"type": "FeatureCollection",
"name": "child_top10",
"crs": { "type": "name", "properties": { "name": "urn:ogc:def:crs:OGC:1.3:CRS84" } },
"features": [
{ "type": "Feature", "properties": { "target_group": "어린이", "cluster_rank": 1, "top10_label": "어린이 TOP1", "cluster_id": "C28", "risk_pct_mean": 46.1, "infra_need_mean": 1.0, "vulnerability_mean": 0.461, "vulnerability_max": 0.461, "grid_n": 1, "cctv_need_rate": 1.0, "light_need_rate": 1.0, "wifi_need_rate": 1.0, "cctv_priority": 0.35491625289462136, "light_priority": 0.4615177615310162, "wifi_priority": 0.18356598557436246, "need_facility_n": 3, "primary_facility": "보안등", "facility_priority_order": "보안등 > CCTV > Wi-Fi", "recommendation_type": "복수시설 보완 필요", "cctv_needed": true, "light_needed": true, "wifi_needed": true, "police_distance_mean_km": null, "police_access_reference": null, "longitude": 128.67969658350336, "latitude": 35.229799644948109 }, "geometry": { "type": "Polygon", "coordinates": [ [ [ 128.68023941372104, 35.22934353012073 ], [ 128.680252471410455, 35.230245048160725 ], [ 128.679153747211245, 35.230255757426107 ], [ 128.67914070167069, 35.229354239030627 ], [ 128.68023941372104, 35.22934353012073 ] ] ] } },
{ "type": "Feature", "properties": { "target_group": "어린이", "cluster_rank": 2, "top10_label": "어린이 TOP2", "cluster_id": "C14", "risk_pct_mean": 35.42, "infra_need_mean": 1.0, "vulnerability_mean": 0.3542, "vulnerability_max": 0.3542, "grid_n": 1, "cctv_need_rate": 1.0, "light_need_rate": 1.0, "wifi_need_rate": 1.0, "cctv_priority": 0.35491625289462136, "light_priority": 0.4615177615310162, "wifi_priority": 0.18356598557436246, "need_facility_n": 3, "primary_facility": "보안등", "facility_priority_order": "보안등 > CCTV > Wi-Fi", "recommendation_type": "복수시설 보완 필요", "cctv_needed": true, "light_needed": true, "wifi_needed": true, "police_distance_mean_km": null, "police_access_reference": null, "longitude": 128.61739024748334, "latitude": 35.253833806272986 }, "geometry": { "type": "Polygon", "coordinates": [ [ [ 128.617933590944403, 35.253377963150925 ], [ 128.617945970394288, 35.254279497327545 ], [ 128.61684689794015, 35.254289647034021 ], [ 128.616834530654529, 35.253388112520611 ], [ 128.617933590944403, 35.253377963150925 ] ] ] } },
{ "type": "Feature", "properties": { "target_group": "어린이", "cluster_rank": 3, "top10_label": "어린이 TOP3", "cluster_id": "C5", "risk_pct_mean": 32.0, "infra_need_mean": 1.0, "vulnerability_mean": 0.32, "vulnerability_max": 0.32, "grid_n": 1, "cctv_need_rate": 1.0, "light_need_rate": 1.0, "wifi_need_rate": 1.0, "cctv_priority": 0.35491625289462136, "light_priority": 0.4615177615310162, "wifi_priority": 0.18356598557436246, "need_facility_n": 3, "primary_facility": "보안등", "facility_priority_order": "보안등 > CCTV > Wi-Fi", "recommendation_type": "복수시설 보완 필요", "cctv_needed": true, "light_needed": true, "wifi_needed": true, "police_distance_mean_km": null, "police_access_reference": null, "longitude": 128.57625981497509, "latitude": 35.219042086574881 }, "geometry": { "type": "Polygon", "coordinates": [ [ [ 128.57680316676857, 35.218586425590331 ], [ 128.576815075482159, 35.219487977392802 ], [ 128.575716457109564, 35.219497745195312 ], [ 128.575704560540089, 35.218596193068564 ], [ 128.57680316676857, 35.218586425590331 ] ] ] } },
{ "type": "Feature", "properties": { "target_group": "어린이", "cluster_rank": 4, "top10_label": "어린이 TOP4", "cluster_id": "C23", "risk_pct_mean": 54.86, "infra_need_mean": 0.5384822384689838, "vulnerability_mean": 0.29541135602408453, "vulnerability_max": 0.29541135602408453, "grid_n": 1, "cctv_need_rate": 1.0, "light_need_rate": 0.0, "wifi_need_rate": 1.0, "cctv_priority": 0.35491625289462136, "light_priority": 0.0, "wifi_priority": 0.18356598557436246, "need_facility_n": 2, "primary_facility": "CCTV", "facility_priority_order": "CCTV > Wi-Fi", "recommendation_type": "복수시설 보완 필요", "cctv_needed": true, "light_needed": false, "wifi_needed": true, "police_distance_mean_km": null, "police_access_reference": null, "longitude": 128.66552926539995, "latitude": 35.238051720318524 }, "geometry": { "type": "Polygon", "coordinates": [ [ [ 128.666072230434366, 35.237595667040878 ], [ 128.666085135343252, 35.238497188428212 ], [ 128.664986294288525, 35.238507771243874 ], [ 128.6649734015337, 35.237606249505319 ], [ 128.666072230434366, 35.237595667040878 ] ] ] } },
{ "type": "Feature", "properties": { "target_group": "어린이", "cluster_rank": 5, "top10_label": "어린이 TOP5", "cluster_id": "C3", "risk_pct_mean": 54.55, "infra_need_mean": 0.5384822384689838, "vulnerability_mean": 0.29374206108483064, "vulnerability_max": 0.29374206108483064, "grid_n": 1, "cctv_need_rate": 1.0, "light_need_rate": 0.0, "wifi_need_rate": 1.0, "cctv_priority": 0.35491625289462136, "light_priority": 0.0, "wifi_priority": 0.18356598557436246, "need_facility_n": 2, "primary_facility": "CCTV", "facility_priority_order": "CCTV > Wi-Fi", "recommendation_type": "복수시설 보완 필요", "cctv_needed": true, "light_needed": false, "wifi_needed": true, "police_distance_mean_km": null, "police_access_reference": null, "longitude": 128.56477931641118, "latitude": 35.181273824946359 }, "geometry": { "type": "Polygon", "coordinates": [ [ [ 128.565322487742918, 35.180818216025621 ], [ 128.565334253050594, 35.181719776849121 ], [ 128.564236139018561, 35.181729431504664 ], [ 128.564224385832603, 35.180827870360474 ], [ 128.565322487742918, 35.180818216025621 ] ] ] } },
{ "type": "Feature", "properties": { "target_group": "어린이", "cluster_rank": 6, "top10_label": "어린이 TOP6", "cluster_id": "C11", "risk_pct_mean": 27.56, "infra_need_mean": 1.0, "vulnerability_mean": 0.2756, "vulnerability_max": 0.2756, "grid_n": 1, "cctv_need_rate": 1.0, "light_need_rate": 1.0, "wifi_need_rate": 1.0, "cctv_priority": 0.35491625289462136, "light_priority": 0.4615177615310162, "wifi_priority": 0.18356598557436246, "need_facility_n": 3, "primary_facility": "보안등", "facility_priority_order": "보안등 > CCTV > Wi-Fi", "recommendation_type": "복수시설 보완 필요", "cctv_needed": true, "light_needed": true, "wifi_needed": true, "police_distance_mean_km": null, "police_access_reference": null, "longitude": 128.59769205837458, "latitude": 35.260325660383266 }, "geometry": { "type": "Polygon", "coordinates": [ [ [ 128.598235556910168, 35.259869903395995 ], [ 128.598247721179717, 35.260771442616644 ], [ 128.597148553754721, 35.260781415005923 ], [ 128.597136401653671, 35.259879875454381 ], [ 128.598235556910168, 35.259869903395995 ] ] ] } },
{ "type": "Feature", "properties": { "target_group": "어린이", "cluster_rank": 7, "top10_label": "어린이 TOP7", "cluster_id": "C21", "risk_pct_mean": 50.0, "infra_need_mean": 0.5384822384689838, "vulnerability_mean": 0.2692411192344919, "vulnerability_max": 0.2692411192344919, "grid_n": 1, "cctv_need_rate": 1.0, "light_need_rate": 0.0, "wifi_need_rate": 1.0, "cctv_priority": 0.35491625289462136, "light_priority": 0.0, "wifi_priority": 0.18356598557436246, "need_facility_n": 2, "primary_facility": "CCTV", "facility_priority_order": "CCTV > Wi-Fi", "recommendation_type": "복수시설 보완 필요", "cctv_needed": true, "light_needed": false, "wifi_needed": true, "police_distance_mean_km": null, "police_access_reference": null, "longitude": 128.65876690483552, "latitude": 35.148853021595833 }, "geometry": { "type": "Polygon", "coordinates": [ [ [ 128.659309329543447, 35.148397002805957 ], [ 128.659322117341702, 35.149298539662375 ], [ 128.658224474077144, 35.149309038040428 ], [ 128.658211698379773, 35.148407500835177 ], [ 128.659309329543447, 35.148397002805957 ] ] ] } },
{ "type": "Feature", "properties": { "target_group": "어린이", "cluster_rank": 8, "top10_label": "어린이 TOP8", "cluster_id": "C26", "risk_pct_mean": 40.28, "infra_need_mean": 0.64508374710537864, "vulnerability_mean": 0.25983973333404653, "vulnerability_max": 0.25983973333404653, "grid_n": 1, "cctv_need_rate": 0.0, "light_need_rate": 1.0, "wifi_need_rate": 1.0, "cctv_priority": 0.0, "light_priority": 0.4615177615310162, "wifi_priority": 0.18356598557436246, "need_facility_n": 2, "primary_facility": "보안등", "facility_priority_order": "보안등 > Wi-Fi", "recommendation_type": "복수시설 보완 필요", "cctv_needed": false, "light_needed": true, "wifi_needed": true, "police_distance_mean_km": null, "police_access_reference": null, "longitude": 128.67620029059341, "latitude": 35.292046926177903 }, "geometry": { "type": "Polygon", "coordinates": [ [ [ 128.676743546086897, 35.291590823138122 ], [ 128.676756595100244, 35.292492333022011 ], [ 128.675657029006828, 35.292503026862128 ], [ 128.675643992179658, 35.291601516623551 ], [ 128.676743546086897, 35.291590823138122 ] ] ] } },
{ "type": "Feature", "properties": { "target_group": "어린이", "cluster_rank": 9, "top10_label": "어린이 TOP9", "cluster_id": "C13", "risk_pct_mean": 47.74, "infra_need_mean": 0.5384822384689838, "vulnerability_mean": 0.25707142064509286, "vulnerability_max": 0.25707142064509286, "grid_n": 1, "cctv_need_rate": 1.0, "light_need_rate": 0.0, "wifi_need_rate": 1.0, "cctv_priority": 0.35491625289462136, "light_priority": 0.0, "wifi_priority": 0.18356598557436246, "need_facility_n": 2, "primary_facility": "CCTV", "facility_priority_order": "CCTV > Wi-Fi", "recommendation_type": "복수시설 보완 필요", "cctv_needed": true, "light_needed": false, "wifi_needed": true, "police_distance_mean_km": null, "police_access_reference": null, "longitude": 128.61300630258972, "latitude": 35.254775860211012 }, "geometry": { "type": "Polygon", "coordinates": [ [ [ 128.613549677284709, 35.25432003627644 ], [ 128.613562008624882, 35.255221571659924 ], [ 128.612462921812266, 35.255231681783826 ], [ 128.612450602637068, 35.254330146064852 ], [ 128.613549677284709, 35.25432003627644 ] ] ] } },
{ "type": "Feature", "properties": { "target_group": "어린이", "cluster_rank": 10, "top10_label": "어린이 TOP10", "cluster_id": "C38", "risk_pct_mean": 46.53, "infra_need_mean": 0.5384822384689838, "vulnerability_mean": 0.25055578555961816, "vulnerability_max": 0.25055578555961816, "grid_n": 1, "cctv_need_rate": 1.0, "light_need_rate": 0.0, "wifi_need_rate": 1.0, "cctv_priority": 0.35491625289462136, "light_priority": 0.0, "wifi_priority": 0.18356598557436246, "need_facility_n": 2, "primary_facility": "CCTV", "facility_priority_order": "CCTV > Wi-Fi", "recommendation_type": "복수시설 보완 필요", "cctv_needed": true, "light_needed": false, "wifi_needed": true, "police_distance_mean_km": null, "police_access_reference": null, "longitude": 128.75470661301313, "latitude": 35.105519801415539 }, "geometry": { "type": "Polygon", "coordinates": [ [ [ 128.755248209740671, 35.105063366888317 ], [ 128.755262033433098, 35.10596487829303 ], [ 128.754165010248869, 35.105976233615927 ], [ 128.754151198629785, 35.105074721833709 ], [ 128.755248209740671, 35.105063366888317 ] ] ] } }
]
}
