{
"type": "FeatureCollection",
"name": "elderly_top10",
"crs": { "type": "name", "properties": { "name": "urn:ogc:def:crs:OGC:1.3:CRS84" } },
"features": [
{ "type": "Feature", "properties": { "target_group": "노인", "cluster_rank": 1, "top10_label": "노인 TOP1", "cluster_id": "E111", "risk_pct_mean": 41.67, "infra_need_mean": 1.0, "vulnerability_mean": 0.4167, "vulnerability_max": 0.4167, "grid_n": 1, "cctv_need_rate": 1.0, "light_need_rate": 1.0, "wifi_need_rate": 1.0, "cctv_priority": 0.35397888263019556, "light_priority": 0.46991558935140831, "wifi_priority": 0.17610552801839613, "need_facility_n": 3, "primary_facility": "보안등", "facility_priority_order": "보안등 > CCTV > Wi-Fi", "recommendation_type": "복수시설 보완 필요", "police_distance_mean_km": 0.02577725912290825, "police_distance_min_km": 0.02577725912290825, "police_distance_max_km": 0.02577725912290825, "police_access_reference": "0.5km 이내", "cctv_needed": true, "light_needed": true, "wifi_needed": true, "longitude": 128.7037164406596, "latitude": 35.144808149683264 }, "geometry": { "type": "Polygon", "coordinates": [ [ [ 128.704258582431919, 35.14435193486441 ], [ 128.704271863984133, 35.145253457689563 ], [ 128.703174292838469, 35.145264362164014 ], [ 128.703161023383899, 35.144362838976519 ], [ 128.704258582431919, 35.14435193486441 ] ] ] } },
{ "type": "Feature", "properties": { "target_group": "노인", "cluster_rank": 2, "top10_label": "노인 TOP2", "cluster_id": "E80", "risk_pct_mean": 38.31, "infra_need_mean": 1.0, "vulnerability_mean": 0.3831, "vulnerability_max": 0.3831, "grid_n": 1, "cctv_need_rate": 1.0, "light_need_rate": 1.0, "wifi_need_rate": 1.0, "cctv_priority": 0.35397888263019556, "light_priority": 0.46991558935140831, "wifi_priority": 0.17610552801839613, "need_facility_n": 3, "primary_facility": "보안등", "facility_priority_order": "보안등 > CCTV > Wi-Fi", "recommendation_type": "복수시설 보완 필요", "police_distance_mean_km": 1.0838033106815219, "police_distance_min_km": 1.0838033106815219, "police_distance_max_km": 1.0838033106815219, "police_access_reference": "1~2km", "cctv_needed": true, "light_needed": true, "wifi_needed": true, "longitude": 128.6700281987041, "latitude": 35.245221466779526 }, "geometry": { "type": "Polygon", "coordinates": [ [ [ 128.670571184606075, 35.244765393404293 ], [ 128.670584142733105, 35.24566691227372 ], [ 128.669485206723067, 35.245677537802521 ], [ 128.669472260754247, 35.244776018580481 ], [ 128.670571184606075, 35.244765393404293 ] ] ] } },
{ "type": "Feature", "properties": { "target_group": "노인", "cluster_rank": 3, "top10_label": "노인 TOP3", "cluster_id": "E12", "risk_pct_mean": 36.215, "infra_need_mean": 1.0, "vulnerability_mean": 0.36215, "vulnerability_max": 0.391, "grid_n": 2, "cctv_need_rate": 1.0, "light_need_rate": 1.0, "wifi_need_rate": 1.0, "cctv_priority": 0.35397888263019556, "light_priority": 0.46991558935140831, "wifi_priority": 0.17610552801839613, "need_facility_n": 3, "primary_facility": "보안등", "facility_priority_order": "보안등 > CCTV > Wi-Fi", "recommendation_type": "복수시설 보완 필요", "police_distance_mean_km": 3.5035705125853065, "police_distance_min_km": 3.4536857612900014, "police_distance_max_km": 3.5534552638806112, "police_access_reference": "2km 초과", "cctv_needed": true, "light_needed": true, "wifi_needed": true, "longitude": 128.55452960040472, "latitude": 35.152960982439119 }, "geometry": { "type": "Polygon", "coordinates": [ [ [ 128.555066826218223, 35.152054635633142 ], [ 128.553969107248378, 35.152064190226774 ], [ 128.553980734802849, 35.15296575865181 ], [ 128.553992362873686, 35.153867326939071 ], [ 128.555090106053541, 35.153857771710477 ], [ 128.555078465877443, 35.152956203740693 ], [ 128.555066826218223, 35.152054635633142 ] ] ] } },
{ "type": "Feature", "properties": { "target_group": "노인", "cluster_rank": 4, "top10_label": "노인 TOP4", "cluster_id": "E62", "risk_pct_mean": 34.72, "infra_need_mean": 1.0, "vulnerability_mean": 0.3472, "vulnerability_max": 0.3472, "grid_n": 1, "cctv_need_rate": 1.0, "light_need_rate": 1.0, "wifi_need_rate": 1.0, "cctv_priority": 0.35397888263019556, "light_priority": 0.46991558935140831, "wifi_priority": 0.17610552801839613, "need_facility_n": 3, "primary_facility": "보안등", "facility_priority_order": "보안등 > CCTV > Wi-Fi", "recommendation_type": "복수시설 보완 필요", "police_distance_mean_km": 0.80471529529091224, "police_distance_min_km": 0.80471529529091224, "police_distance_max_km": 0.80471529529091224, "police_access_reference": "0.5~1km", "cctv_needed": true, "light_needed": true, "wifi_needed": true, "longitude": 128.63613720373942, "latitude": 35.258167463254679 }, "geometry": { "type": "Polygon", "coordinates": [ [ [ 128.636680468112331, 35.257711537687655 ], [ 128.636693057146118, 35.258613065395537 ], [ 128.635593933283218, 35.258623386463121 ], [ 128.635581356415997, 35.257721858412779 ], [ 128.636680468112331, 35.257711537687655 ] ] ] } },
{ "type": "Feature", "properties": { "target_group": "노인", "cluster_rank": 5, "top10_label": "노인 TOP5", "cluster_id": "E106", "risk_pct_mean": 34.64, "infra_need_mean": 1.0, "vulnerability_mean": 0.3464, "vulnerability_max": 0.3464, "grid_n": 1, "cctv_need_rate": 1.0, "light_need_rate": 1.0, "wifi_need_rate": 1.0, "cctv_priority": 0.35397888263019556, "light_priority": 0.46991558935140831, "wifi_priority": 0.17610552801839613, "need_facility_n": 3, "primary_facility": "보안등", "facility_priority_order": "보안등 > CCTV > Wi-Fi", "recommendation_type": "복수시설 보완 필요", "police_distance_mean_km": 0.57314304722160259, "police_distance_min_km": 0.57314304722160259, "police_distance_max_km": 0.57314304722160259, "police_access_reference": "0.5~1km", "cctv_needed": true, "light_needed": true, "wifi_needed": true, "longitude": 128.69923464555433, "latitude": 35.21337803200268 }, "geometry": { "type": "Polygon", "coordinates": [ [ [ 128.699777257187009, 35.212921832679314 ], [ 128.699790522943829, 35.213823346764151 ], [ 128.698692027852275, 35.213834228981106 ], [ 128.698678774234139, 35.212932714534986 ], [ 128.699777257187009, 35.212921832679314 ] ] ] } },
{ "type": "Feature", "properties": { "target_group": "노인", "cluster_rank": 6, "top10_label": "노인 TOP6", "cluster_id": "E91", "risk_pct_mean": 53.37, "infra_need_mean": 0.6460211173698045, "vulnerability_mean": 0.34478147034026463, "vulnerability_max": 0.34478147034026463, "grid_n": 1, "cctv_need_rate": 0.0, "light_need_rate": 1.0, "wifi_need_rate": 1.0, "cctv_priority": 0.0, "light_priority": 0.46991558935140831, "wifi_priority": 0.17610552801839613, "need_facility_n": 2, "primary_facility": "보안등", "facility_priority_order": "보안등 > Wi-Fi", "recommendation_type": "복수시설 보완 필요", "police_distance_mean_km": 0.80158547946404135, "police_distance_min_km": 0.80158547946404135, "police_distance_max_km": 0.80158547946404135, "police_access_reference": "0.5~1km", "cctv_needed": false, "light_needed": true, "wifi_needed": true, "longitude": 128.6786891555391, "latitude": 35.236120975663177 }, "geometry": { "type": "Polygon", "coordinates": [ [ [ 128.679232032620661, 35.235664864885216 ], [ 128.679245082216795, 35.23656638230942 ], [ 128.678146272381184, 35.236577084091017 ], [ 128.67813323493769, 35.235675566311627 ], [ 128.679232032620661, 35.235664864885216 ] ] ] } },
{ "type": "Feature", "properties": { "target_group": "노인", "cluster_rank": 7, "top10_label": "노인 TOP7", "cluster_id": "E72", "risk_pct_mean": 64.265, "infra_need_mean": 0.53008441064859169, "vulnerability_mean": 0.3406587465033174, "vulnerability_max": 0.41108046045798285, "grid_n": 2, "cctv_need_rate": 1.0, "light_need_rate": 0.0, "wifi_need_rate": 1.0, "cctv_priority": 0.35397888263019556, "light_priority": 0.0, "wifi_priority": 0.17610552801839613, "need_facility_n": 2, "primary_facility": "CCTV", "facility_priority_order": "CCTV > Wi-Fi", "recommendation_type": "복수시설 보완 필요", "police_distance_mean_km": 0.075422496584155438, "police_distance_min_km": 0.03173301601310153, "police_distance_max_km": 0.11911197715520935, "police_access_reference": "0.5km 이내", "cctv_needed": true, "light_needed": false, "wifi_needed": true, "longitude": 128.66041976003839, "latitude": 35.149288031343843 }, "geometry": { "type": "MultiPolygon", "coordinates": [ [ [ [ 128.660406960139284, 35.148386494836586 ], [ 128.659309329543447, 35.148397002805957 ], [ 128.659322117341702, 35.149298539662375 ], [ 128.660419760038394, 35.149288031343843 ], [ 128.660406960139284, 35.148386494836586 ] ] ], [ [ [ 128.660432560505882, 35.150189567712644 ], [ 128.661530214735478, 35.150179049104139 ], [ 128.66151740216668, 35.149277513084854 ], [ 128.660419760038394, 35.149288031343843 ], [ 128.660432560505882, 35.150189567712644 ] ] ] ] } },
{ "type": "Feature", "properties": { "target_group": "노인", "cluster_rank": 8, "top10_label": "노인 TOP8", "cluster_id": "E83", "risk_pct_mean": 33.33, "infra_need_mean": 1.0, "vulnerability_mean": 0.3333, "vulnerability_max": 0.3333, "grid_n": 1, "cctv_need_rate": 1.0, "light_need_rate": 1.0, "wifi_need_rate": 1.0, "cctv_priority": 0.35397888263019556, "light_priority": 0.46991558935140831, "wifi_priority": 0.17610552801839613, "need_facility_n": 3, "primary_facility": "보안등", "facility_priority_order": "보안등 > CCTV > Wi-Fi", "recommendation_type": "복수시설 보완 필요", "police_distance_mean_km": 1.5360416222921636, "police_distance_min_km": 1.5360416222921636, "police_distance_max_km": 1.5360416222921636, "police_access_reference": "1~2km", "cctv_needed": true, "light_needed": true, "wifi_needed": true, "longitude": 128.67447592116207, "latitude": 35.248784954985979 }, "geometry": { "type": "Polygon", "coordinates": [ [ [ 128.675018904758446, 35.248328861936024 ], [ 128.675031913828605, 35.24923037883665 ], [ 128.673932931485496, 35.249241045684016 ], [ 128.67391993457565, 35.248339528429412 ], [ 128.675018904758446, 35.248328861936024 ] ] ] } },
{ "type": "Feature", "properties": { "target_group": "노인", "cluster_rank": 9, "top10_label": "노인 TOP9", "cluster_id": "E99", "risk_pct_mean": 33.33, "infra_need_mean": 1.0, "vulnerability_mean": 0.3333, "vulnerability_max": 0.3333, "grid_n": 1, "cctv_need_rate": 1.0, "light_need_rate": 1.0, "wifi_need_rate": 1.0, "cctv_priority": 0.35397888263019556, "light_priority": 0.46991558935140831, "wifi_priority": 0.17610552801839613, "need_facility_n": 3, "primary_facility": "보안등", "facility_priority_order": "보안등 > CCTV > Wi-Fi", "recommendation_type": "복수시설 보완 필요", "police_distance_mean_km": 0.25386627396384581, "police_distance_min_km": 0.25386627396384581, "police_distance_max_km": 0.25386627396384581, "police_access_reference": "0.5km 이내", "cctv_needed": true, "light_needed": true, "wifi_needed": true, "longitude": 128.69069008611459, "latitude": 35.154855077886516 }, "geometry": { "type": "Polygon", "coordinates": [ [ [ 128.69123236733742, 35.154398919325999 ], [ 128.69124551013411, 35.155300444951848 ], [ 128.690147798839803, 35.155311234106044 ], [ 128.69013466814701, 35.15440970812174 ], [ 128.69123236733742, 35.154398919325999 ] ] ] } },
{ "type": "Feature", "properties": { "target_group": "노인", "cluster_rank": 10, "top10_label": "노인 TOP10", "cluster_id": "E52", "risk_pct_mean": 32.05, "infra_need_mean": 1.0, "vulnerability_mean": 0.3205, "vulnerability_max": 0.3205, "grid_n": 1, "cctv_need_rate": 1.0, "light_need_rate": 1.0, "wifi_need_rate": 1.0, "cctv_priority": 0.35397888263019556, "light_priority": 0.46991558935140831, "wifi_priority": 0.17610552801839613, "need_facility_n": 3, "primary_facility": "보안등", "facility_priority_order": "보안등 > CCTV > Wi-Fi", "recommendation_type": "복수시설 보완 필요", "police_distance_mean_km": 1.4996133241239342, "police_distance_min_km": 1.4996133241239342, "police_distance_max_km": 1.4996133241239342, "police_access_reference": "1~2km", "cctv_needed": true, "light_needed": true, "wifi_needed": true, "longitude": 128.6129939776057, "latitude": 35.253874324590576 }, "geometry": { "type": "Polygon", "coordinates": [ [ [ 128.613537346492109, 35.253418500754606 ], [ 128.613549677284709, 35.25432003627644 ], [ 128.612450602637068, 35.254330146064852 ], [ 128.612438284008846, 35.253428610207543 ], [ 128.613537346492109, 35.253418500754606 ] ] ] } }
]
}
