{"type":"FeatureCollection","licence":"Data © OpenStreetMap contributors, ODbL 1.0. http://osm.org/copyright","features":[{"type":"Feature","properties":{"place_id":270146132,"osm_type":"relation","osm_id":7224485,"place_rank":12,"category":"boundary","type":"administrative","importance":0.5241226221396941,"addresstype":"city","name":"김해시","display_name":"김해시, 경상남도, 대한민국"},"bbox":[128.6955428,35.1511777,129.0142563,35.3951116],"geometry":{"type":"Polygon","coordinates":[[[128.6955428,35.3036734],[128.7045229,35.2937481],[128.70345,35.2918741],[128.7035805,35.2905365],[128.7067292,35.28739],[128.7050278,35.2844888],[128.7049926,35.2822055],[128.7064366,35.2806862],[128.7062998,35.278339],[128.7116333,35.2695339],[128.7114859,35.2632728],[128.7126446,35.2616083],[128.7138247,35.2568951],[128.7174296,35.2505607],[128.7180949,35.243411],[128.7211204,35.2444625],[128.7240386,35.239976],[128.7242102,35.2291096],[128.7198329,35.224973],[128.7221503,35.2226591],[128.7221503,35.2190831],[128.7249827,35.2122111],[128.7305617,35.2054788],[128.7378573,35.204006],[128.7442088,35.2058294],[128.7507319,35.2004292],[128.7522769,35.1930646],[128.7477278,35.1925736],[128.7404108,35.1686865],[128.7641215,35.1693531],[128.7813735,35.1591789],[128.7939718,35.1573882],[128.7953022,35.158546],[128.8013104,35.1584759],[128.806546,35.1608968],[128.8078764,35.1594232],[128.8134125,35.1591776],[128.8156441,35.1602301],[128.8218668,35.1582303],[128.8225535,35.1567215],[128.8237551,35.1563356],[128.8270596,35.158125],[128.828862,35.1571426],[128.8331536,35.1572829],[128.8375309,35.1594934],[128.8396338,35.1616335],[128.8461569,35.1641947],[128.8461569,35.1654928],[128.847616,35.1670364],[128.8528946,35.1662997],[128.8625076,35.1683695],[128.8645676,35.1668961],[128.8692454,35.1679485],[128.8708761,35.1667557],[128.8719061,35.1670715],[128.873494,35.1647911],[128.8730648,35.1627562],[128.8700135,35.1600547],[128.8699706,35.1583706],[128.8657692,35.1592478],[128.8652542,35.1582303],[128.8715585,35.1511777],[128.8769272,35.1516338],[128.875335,35.1533532],[128.8754209,35.158511],[128.881429,35.1596688],[128.8822015,35.1603705],[128.8820341,35.1625107],[128.8802317,35.1623703],[128.8792875,35.1633527],[128.879588,35.1645104],[128.8776568,35.1645806],[128.8764551,35.1657033],[128.8804645,35.1669846],[128.8782114,35.1681599],[128.8790483,35.1693],[128.8724425,35.1723687],[128.8735369,35.1743507],[128.880575,35.1716671],[128.8801673,35.1797352],[128.8817123,35.1822081],[128.8763875,35.1878209],[128.8757685,35.1893807],[128.8762588,35.1928888],[128.8704652,35.2017087],[128.8791159,35.2100184],[128.881709,35.2105277],[128.8841338,35.2123159],[128.8841123,35.2132976],[128.8864973,35.2144363],[128.8891152,35.2147343],[128.8966468,35.2130338],[128.9048619,35.2153487],[128.9097145,35.2155056],[128.9049906,35.220117],[128.9095318,35.2230631],[128.9124182,35.2225527],[128.9166474,35.2169405],[128.9188602,35.2174765],[128.9205077,35.2157861],[128.929756,35.2201336],[128.9383388,35.2277273],[128.9412077,35.2285558],[128.9486424,35.2276787],[128.9526719,35.2261133],[128.9751244,35.2247777],[128.986326,35.2273626],[128.9926421,35.2320108],[128.9984916,35.2326888],[129.0010995,35.2356694],[129.0142563,35.2709538],[129.0102778,35.2790225],[128.9949999,35.2913535],[128.9876185,35.294436],[128.982297,35.2977985],[128.9747439,35.3080254],[128.9694224,35.3280551],[128.9665042,35.3315563],[128.9438449,35.3392584],[128.9127741,35.3639002],[128.906251,35.36516],[128.8940631,35.3648801],[128.8837634,35.3668399],[128.8765536,35.3708993],[128.8725397,35.3805204],[128.8705455,35.3899338],[128.8660181,35.3942826],[128.8619624,35.3951116],[128.8544093,35.394132],[128.8353549,35.384056],[128.8107215,35.3797873],[128.8064299,35.3782477],[128.8011084,35.3733488],[128.8007927,35.3610562],[128.7964736,35.3555704],[128.7892638,35.3510902],[128.7616263,35.3443694],[128.7616324,35.3405094],[128.7529045,35.3343761],[128.7517638,35.3348625],[128.7531245,35.3372713],[128.7502384,35.3402644],[128.7503671,35.3327375],[128.7423634,35.3316346],[128.7416124,35.3304792],[128.7427926,35.3255949],[128.7424707,35.3203778],[128.7409257,35.3193623],[128.7401533,35.3174364],[128.7335229,35.3158956],[128.7250685,35.3193623],[128.7212491,35.3225137],[128.7196183,35.3250348],[128.7176656,35.3255249],[128.7130951,35.3219885],[128.7135243,35.3181017],[128.7113786,35.3147225],[128.7130522,35.3120785],[128.7161636,35.3100649],[128.7092757,35.3088916],[128.6966693,35.3104501],[128.6955428,35.3036734]]]}}]}