{"type":"FeatureCollection","licence":"Data © OpenStreetMap contributors, ODbL 1.0. http://osm.org/copyright","features":[{"type":"Feature","properties":{"place_id":269534220,"osm_type":"relation","osm_id":7831215,"place_rank":12,"category":"boundary","type":"administrative","importance":0.5052967700490137,"addresstype":"city","name":"통영시","display_name":"통영시, 경상남도, 대한민국"},"bbox":[128.0806730,34.2050429,128.8162752,34.9796454],"geometry":{"type":"Polygon","coordinates":[[[128.080673,34.866215],[128.1252517,34.7866841],[128.1173362,34.7138196],[128.1159818,34.6309635],[128.1214513,34.5838648],[128.1402867,34.4734338],[128.3063269,34.2050429],[128.8162752,34.343261],[128.7927232,34.5099527],[128.6041267,34.670741],[128.5704465,34.704896],[128.5684229,34.7380855],[128.569908,34.758538],[128.5412405,34.7688326],[128.5302542,34.7775749],[128.5292242,34.7957617],[128.5130881,34.8043602],[128.489166,34.8216693],[128.4772108,34.8187361],[128.4639929,34.8209909],[128.4540858,34.8335613],[128.4498739,34.8370633],[128.4548521,34.8415718],[128.4613797,34.8456362],[128.4722811,34.8671983],[128.4692287,34.8745948],[128.4773155,34.8896604],[128.4805447,34.8993171],[128.4962662,34.9110972],[128.4984968,34.927601],[128.4998292,34.9796454],[128.4429448,34.9728137],[128.433183,34.9755428],[128.4321633,34.9765382],[128.4259648,34.9758994],[128.4225217,34.9746149],[128.4185537,34.9709596],[128.415793,34.9666619],[128.4052143,34.968616],[128.4011232,34.9708775],[128.400389,34.9696327],[128.4003428,34.9640849],[128.396796,34.9643885],[128.3928499,34.963647],[128.3889556,34.9608398],[128.3911236,34.9518063],[128.3862502,34.950968],[128.382722,34.947417],[128.3737169,34.9454289],[128.3704749,34.9461777],[128.3671883,34.9455869],[128.3475444,34.9398919],[128.3397882,34.9340368],[128.3323256,34.9314266],[128.3143741,34.9288548],[128.3164376,34.9162151],[128.3103684,34.9126319],[128.2894906,34.9043699],[128.2888837,34.8972021],[128.2944671,34.884259],[128.2726182,34.8768903],[128.2365414,34.8729755],[128.1634137,34.8681869],[128.1126888,34.881449],[128.080673,34.866215]]]}}]}